[
  {
    "OBJECT_NAME": "STARLINK-1190",
    "OBJECT_ID": "20006AR",
    "EPOCH": "2025-11-11T08:00:03.000384",
    "MEAN_MOTION": 15.97939167,
    "ECCENTRICITY": 0.0005379,
    "INCLINATION": 53.0363,
    "RA_OF_ASC_NODE": 21.8205,
    "ARG_OF_PERICENTER": 345.8255,
    "MEAN_ANOMALY": 147.2761,
    "EPHEMERIS_TYPE": 0,
    "CLASSIFICATION_TYPE": "U",
    "NORAD_CAT_ID": 45083,
    "ELEMENT_SET_NO": 999,
    "REV_AT_EPOCH": 597,
    "BSTAR": 0.0009317800000000001,
    "MEAN_MOTION_DOT": 0.00433141,
    "MEAN_MOTION_DDOT": 8.924800000000001e-05,
    "TLE_LINE1": "1 45083U 20006AR  25315.33336806  .00433141  89248-4  93178-3 0  9998",
    "TLE_LINE2": "2 45083  53.0363  21.8205 0005379 345.8255 147.2761 15.97939167  5972",
    "COMMENT": "Grouped by shell and plane from TLE"
  }
]